{
  "type": "FeatureCollection",
  "features": [
    {
      "type": "Feature",
      "properties": {
        "norad_id": 32275,
        "name": "COSMOS 2433 (720)",
        "group": "glo-ops",
        "lat": 29.47794097570684,
        "lon": -23.105750737111,
        "alt_km": 19136.96875889097,
        "timestamp": "2025-12-15T22:44:29.188603+00:00",
        "meta_object_name": "COSMOS 2433 (720)",
        "meta_object_id": "2007-052A",
        "meta_epoch": "2025-12-14T23:11:38.676768",
        "meta_mean_motion": 2.13103946,
        "meta_eccentricity": 0.00054528,
        "meta_inclination": 65.6819,
        "meta_ra_of_asc_node": 322.1306,
        "meta_arg_of_pericenter": 253.3284,
        "meta_mean_anomaly": 106.6099,
        "meta_ephemeris_type": 0,
        "meta_classification_type": "U",
        "meta_norad_cat_id": 32275,
        "meta_element_set_no": 999,
        "meta_rev_at_epoch": 14113,
        "meta_bstar": 0,
        "meta_mean_motion_dot": -6.5e-07,
        "meta_mean_motion_ddot": 0,
        "tle_line1": "1 32275U 07052A   25348.96641987 -.00000065  00000+0  00000+0 0  9995",
        "tle_line2": "2 32275  65.6819 322.1306 0005452 253.3284 106.6099  2.13103946141136"
      },
      "geometry": {
        "type": "Point",
        "coordinates": [
          -23.105750737111,
          29.47794097570684
        ]
      }
    },
    {
      "type": "Feature",
      "properties": {
        "norad_id": 32276,
        "name": "COSMOS 2432 (719)",
        "group": "glo-ops",
        "lat": -20.722446668712383,
        "lon": -47.63160185633825,
        "alt_km": 19106.805054601435,
        "timestamp": "2025-12-15T22:44:29.188627+00:00",
        "meta_object_name": "COSMOS 2432 (719)",
        "meta_object_id": "2007-052B",
        "meta_epoch": "2025-12-15T06:31:38.583840",
        "meta_mean_motion": 2.13103103,
        "meta_eccentricity": 0.00112605,
        "meta_inclination": 65.6973,
        "meta_ra_of_asc_node": 322.2446,
        "meta_arg_of_pericenter": 312.4858,
        "meta_mean_anomaly": 226.3212,
        "meta_ephemeris_type": 0,
        "meta_classification_type": "U",
        "meta_norad_cat_id": 32276,
        "meta_element_set_no": 999,
        "meta_rev_at_epoch": 14116,
        "meta_bstar": 0,
        "meta_mean_motion_dot": -6.6e-07,
        "meta_mean_motion_ddot": 0,
        "tle_line1": "1 32276U 07052B   25349.27197435 -.00000066  00000+0  00000+0 0  9996",
        "tle_line2": "2 32276  65.6973 322.2446 0011260 312.4858 226.3212  2.13103103141167"
      },
      "geometry": {
        "type": "Point",
        "coordinates": [
          -47.63160185633825,
          -20.722446668712383
        ]
      }
    },
    {
      "type": "Feature",
      "properties": {
        "norad_id": 32393,
        "name": "COSMOS 2434 (721)",
        "group": "glo-ops",
        "lat": -61.32379586098519,
        "lon": 136.45942576128496,
        "alt_km": 19146.002052914806,
        "timestamp": "2025-12-15T22:44:29.188643+00:00",
        "meta_object_name": "COSMOS 2434 (721)",
        "meta_object_id": "2007-065A",
        "meta_epoch": "2025-12-15T08:26:38.759136",
        "meta_mean_motion": 2.13101367,
        "meta_eccentricity": 0.00044341,
        "meta_inclination": 64.3148,
        "meta_ra_of_asc_node": 198.1152,
        "meta_arg_of_pericenter": 71.4602,
        "meta_mean_anomaly": 114.7825,
        "meta_ephemeris_type": 0,
        "meta_classification_type": "U",
        "meta_norad_cat_id": 32393,
        "meta_element_set_no": 999,
        "meta_rev_at_epoch": 13985,
        "meta_bstar": 0,
        "meta_mean_motion_dot": 1.05e-06,
        "meta_mean_motion_ddot": 0,
        "tle_line1": "1 32393U 07065A   25349.35183749  .00000105  00000+0  00000+0 0  9995",
        "tle_line2": "2 32393  64.3148 198.1152 0004434  71.4602 114.7825  2.13101367139858"
      },
      "geometry": {
        "type": "Point",
        "coordinates": [
          136.45942576128496,
          -61.32379586098519
        ]
      }
    },
    {
      "type": "Feature",
      "properties": {
        "norad_id": 32395,
        "name": "COSMOS 2436 (723)",
        "group": "glo-ops",
        "lat": 48.64250960342468,
        "lon": -128.70323330468096,
        "alt_km": 19093.59130238632,
        "timestamp": "2025-12-15T22:44:29.188657+00:00",
        "meta_object_name": "COSMOS 2436 (723)",
        "meta_object_id": "2007-065C",
        "meta_epoch": "2025-12-08T02:01:11.627904",
        "meta_mean_motion": 2.13100022,
        "meta_eccentricity": 0.00177472,
        "meta_inclination": 64.3236,
        "meta_ra_of_asc_node": 198.4308,
        "meta_arg_of_pericenter": 9.2257,
        "meta_mean_anomaly": 134.6131,
        "meta_ephemeris_type": 0,
        "meta_classification_type": "U",
        "meta_norad_cat_id": 32395,
        "meta_element_set_no": 999,
        "meta_rev_at_epoch": 13965,
        "meta_bstar": 0,
        "meta_mean_motion_dot": 5.1e-07,
        "meta_mean_motion_ddot": 0,
        "tle_line1": "1 32395U 07065C   25342.08416236  .00000051  00000+0  00000+0 0  9990",
        "tle_line2": "2 32395  64.3236 198.4308 0017747   9.2257 134.6131  2.13100022139656"
      },
      "geometry": {
        "type": "Point",
        "coordinates": [
          -128.70323330468096,
          48.64250960342468
        ]
      }
    },
    {
      "type": "Feature",
      "properties": {
        "norad_id": 36111,
        "name": "COSMOS 2456 (730)",
        "group": "glo-ops",
        "lat": 63.25582056305056,
        "lon": 145.44977312840882,
        "alt_km": 19129.228473695875,
        "timestamp": "2025-12-15T22:44:29.188670+00:00",
        "meta_object_name": "COSMOS 2456 (730)",
        "meta_object_id": "2009-070A",
        "meta_epoch": "2025-12-14T09:56:44.941056",
        "meta_mean_motion": 2.13103612,
        "meta_eccentricity": 0.00031175,
        "meta_inclination": 64.9016,
        "meta_ra_of_asc_node": 77.2804,
        "meta_arg_of_pericenter": 298.1789,
        "meta_mean_anomaly": 45.9889,
        "meta_ephemeris_type": 0,
        "meta_classification_type": "U",
        "meta_norad_cat_id": 36111,
        "meta_element_set_no": 999,
        "meta_rev_at_epoch": 12448,
        "meta_bstar": 0,
        "meta_mean_motion_dot": -5.7e-07,
        "meta_mean_motion_ddot": 0,
        "tle_line1": "1 36111U 09070A   25348.41440904 -.00000057  00000+0  00000+0 0  9997",
        "tle_line2": "2 36111  64.9016  77.2804 0003117 298.1789  45.9889  2.13103612124485"
      },
      "geometry": {
        "type": "Point",
        "coordinates": [
          145.44977312840882,
          63.25582056305056
        ]
      }
    },
    {
      "type": "Feature",
      "properties": {
        "norad_id": 36112,
        "name": "COSMOS 2457 (733)",
        "group": "glo-ops",
        "lat": -26.527170094593416,
        "lon": -89.40084169578566,
        "alt_km": 19126.156555699206,
        "timestamp": "2025-12-15T22:44:29.188682+00:00",
        "meta_object_name": "COSMOS 2457 (733)",
        "meta_object_id": "2009-070B",
        "meta_epoch": "2025-12-13T07:58:58.732608",
        "meta_mean_motion": 2.13100875,
        "meta_eccentricity": 0.00047033,
        "meta_inclination": 64.8861,
        "meta_ra_of_asc_node": 77.165,
        "meta_arg_of_pericenter": 158.447,
        "meta_mean_anomaly": 204.9439,
        "meta_ephemeris_type": 0,
        "meta_classification_type": "U",
        "meta_norad_cat_id": 36112,
        "meta_element_set_no": 999,
        "meta_rev_at_epoch": 12447,
        "meta_bstar": 0,
        "meta_mean_motion_dot": -5.1e-07,
        "meta_mean_motion_ddot": 0,
        "tle_line1": "1 36112U 09070B   25347.33262422 -.00000051  00000+0  00000+0 0  9999",
        "tle_line2": "2 36112  64.8861  77.1650 0004703 158.4470 204.9439  2.13100875124473"
      },
      "geometry": {
        "type": "Point",
        "coordinates": [
          -89.40084169578566,
          -26.527170094593416
        ]
      }
    },
    {
      "type": "Feature",
      "properties": {
        "norad_id": 36402,
        "name": "COSMOS 2460 (732)",
        "group": "glo-ops",
        "lat": -26.20918854043925,
        "lon": 153.60568594030354,
        "alt_km": 19130.533217113363,
        "timestamp": "2025-12-15T22:44:29.188694+00:00",
        "meta_object_name": "COSMOS 2460 (732)",
        "meta_object_id": "2010-007C",
        "meta_epoch": "2025-12-15T05:47:00.728160",
        "meta_mean_motion": 2.13106127,
        "meta_eccentricity": 0.00026664,
        "meta_inclination": 65.5278,
        "meta_ra_of_asc_node": 320.6882,
        "meta_arg_of_pericenter": 275.3459,
        "meta_mean_anomaly": 111.58,
        "meta_ephemeris_type": 0,
        "meta_classification_type": "U",
        "meta_norad_cat_id": 36402,
        "meta_element_set_no": 999,
        "meta_rev_at_epoch": 12281,
        "meta_bstar": 0,
        "meta_mean_motion_dot": -6.7e-07,
        "meta_mean_motion_ddot": 0,
        "tle_line1": "1 36402U 10007C   25349.24098065 -.00000067  00000+0  00000+0 0  9992",
        "tle_line2": "2 36402  65.5278 320.6882 0002666 275.3459 111.5800  2.13106127122817"
      },
      "geometry": {
        "type": "Point",
        "coordinates": [
          153.60568594030354,
          -26.20918854043925
        ]
      }
    }
  ]
}